{
  "type": "FeatureCollection",
  "features": [
    {
      "type": "Feature",
      "properties": {
        "norad_id": 31805,
        "name": "FENGYUN 1C DEB",
        "group": "fengyun-1c-debris",
        "lat": 74.73674353479504,
        "lon": -65.73049274587814,
        "alt_km": 885.711811264624,
        "timestamp": "2025-12-08T08:59:01.049899+00:00",
        "meta_object_name": "FENGYUN 1C DEB",
        "meta_object_id": "1999-025CGT",
        "meta_epoch": "2025-12-07T05:12:17.906688",
        "meta_mean_motion": 14.02746923,
        "meta_eccentricity": 0.04470406,
        "meta_inclination": 98.3642,
        "meta_ra_of_asc_node": 325.8272,
        "meta_arg_of_pericenter": 174.5736,
        "meta_mean_anomaly": 186.052,
        "meta_ephemeris_type": 0,
        "meta_classification_type": "U",
        "meta_norad_cat_id": 31805,
        "meta_element_set_no": 999,
        "meta_rev_at_epoch": 62286,
        "meta_bstar": 0.0016626446,
        "meta_mean_motion_dot": 6.23e-05,
        "meta_mean_motion_ddot": 0,
        "tle_line1": "1 31805U 99025CGT 25341.21687392  .00006230  00000+0  16626-2 0  9998",
        "tle_line2": "2 31805  98.3642 325.8272 0447040 174.5736 186.0520 14.02746923622866"
      },
      "geometry": {
        "type": "Point",
        "coordinates": [
          -65.73049274587814,
          74.73674353479504
        ]
      }
    },
    {
      "type": "Feature",
      "properties": {
        "norad_id": 31807,
        "name": "FENGYUN 1C DEB",
        "group": "fengyun-1c-debris",
        "lat": -14.431200102210695,
        "lon": 115.32950625550205,
        "alt_km": 797.5026349101718,
        "timestamp": "2025-12-08T08:59:01.049909+00:00",
        "meta_object_name": "FENGYUN 1C DEB",
        "meta_object_id": "1999-025CGV",
        "meta_epoch": "2025-12-06T04:07:38.975232",
        "meta_mean_motion": 14.51951953,
        "meta_eccentricity": 0.0105543,
        "meta_inclination": 99.0773,
        "meta_ra_of_asc_node": 110.5929,
        "meta_arg_of_pericenter": 182.1941,
        "meta_mean_anomaly": 177.8804,
        "meta_ephemeris_type": 0,
        "meta_classification_type": "U",
        "meta_norad_cat_id": 31807,
        "meta_element_set_no": 999,
        "meta_rev_at_epoch": 65210,
        "meta_bstar": 0.001796583,
        "meta_mean_motion_dot": 7.748e-05,
        "meta_mean_motion_ddot": 0,
        "tle_line1": "1 31807U 99025CGV 25340.17197888  .00007748  00000+0  17966-2 0  9993",
        "tle_line2": "2 31807  99.0773 110.5929 0105543 182.1941 177.8804 14.51951953652109"
      },
      "geometry": {
        "type": "Point",
        "coordinates": [
          115.32950625550205,
          -14.431200102210695
        ]
      }
    },
    {
      "type": "Feature",
      "properties": {
        "norad_id": 31808,
        "name": "FENGYUN 1C DEB",
        "group": "fengyun-1c-debris",
        "lat": -36.32452015905686,
        "lon": 175.74306782229385,
        "alt_km": 735.3217738140347,
        "timestamp": "2025-12-08T08:59:01.049919+00:00",
        "meta_object_name": "FENGYUN 1C DEB",
        "meta_object_id": "1999-025CGW",
        "meta_epoch": "2025-12-06T07:42:11.514240",
        "meta_mean_motion": 14.56750556,
        "meta_eccentricity": 0.00373271,
        "meta_inclination": 99.2036,
        "meta_ra_of_asc_node": 166.6311,
        "meta_arg_of_pericenter": 160.1582,
        "meta_mean_anomaly": 200.1075,
        "meta_ephemeris_type": 0,
        "meta_classification_type": "U",
        "meta_norad_cat_id": 31808,
        "meta_element_set_no": 999,
        "meta_rev_at_epoch": 57509,
        "meta_bstar": 0.0097701777,
        "meta_mean_motion_dot": 0.00044336,
        "meta_mean_motion_ddot": 0,
        "tle_line1": "1 31808U 99025CGW 25340.32096660  .00044336  00000+0  97702-2 0  9997",
        "tle_line2": "2 31808  99.2036 166.6311 0037327 160.1582 200.1075 14.56750556575095"
      },
      "geometry": {
        "type": "Point",
        "coordinates": [
          175.74306782229385,
          -36.32452015905686
        ]
      }
    },
    {
      "type": "Feature",
      "properties": {
        "norad_id": 31810,
        "name": "FENGYUN 1C DEB",
        "group": "fengyun-1c-debris",
        "lat": -26.03140238546086,
        "lon": 1.9407613034551712,
        "alt_km": 897.460563728675,
        "timestamp": "2025-12-08T08:59:01.049930+00:00",
        "meta_object_name": "FENGYUN 1C DEB",
        "meta_object_id": "1999-025CGY",
        "meta_epoch": "2025-12-02T18:34:02.794944",
        "meta_mean_motion": 14.45755419,
        "meta_eccentricity": 0.02141225,
        "meta_inclination": 98.2699,
        "meta_ra_of_asc_node": 352.4032,
        "meta_arg_of_pericenter": 170.6735,
        "meta_mean_anomaly": 189.8534,
        "meta_ephemeris_type": 0,
        "meta_classification_type": "U",
        "meta_norad_cat_id": 31810,
        "meta_element_set_no": 999,
        "meta_rev_at_epoch": 64270,
        "meta_bstar": 0.00070820977,
        "meta_mean_motion_dot": 3.284e-05,
        "meta_mean_motion_ddot": 0,
        "tle_line1": "1 31810U 99025CGY 25336.77364346  .00003284  00000+0  70821-3 0  9994",
        "tle_line2": "2 31810  98.2699 352.4032 0214122 170.6735 189.8534 14.45755419642700"
      },
      "geometry": {
        "type": "Point",
        "coordinates": [
          1.9407613034551712,
          -26.03140238546086
        ]
      }
    },
    {
      "type": "Feature",
      "properties": {
        "norad_id": 31813,
        "name": "FENGYUN 1C DEB",
        "group": "fengyun-1c-debris",
        "lat": -13.066209633823684,
        "lon": -120.82252493163331,
        "alt_km": 817.3973041701711,
        "timestamp": "2025-12-08T08:59:01.049940+00:00",
        "meta_object_name": "FENGYUN 1C DEB",
        "meta_object_id": "1999-025CHB",
        "meta_epoch": "2025-12-07T10:33:28.654272",
        "meta_mean_motion": 14.49754247,
        "meta_eccentricity": 0.01364096,
        "meta_inclination": 99.4272,
        "meta_ra_of_asc_node": 60.3431,
        "meta_arg_of_pericenter": 349.4228,
        "meta_mean_anomaly": 10.41,
        "meta_ephemeris_type": 0,
        "meta_classification_type": "U",
        "meta_norad_cat_id": 31813,
        "meta_element_set_no": 999,
        "meta_rev_at_epoch": 97179,
        "meta_bstar": 0.00069758631,
        "meta_mean_motion_dot": 2.966e-05,
        "meta_mean_motion_ddot": 0,
        "tle_line1": "1 31813U 99025CHB 25341.43991498  .00002966  00000+0  69759-3 0  9994",
        "tle_line2": "2 31813  99.4272  60.3431 0136409 349.4228  10.4100 14.49754247971799"
      },
      "geometry": {
        "type": "Point",
        "coordinates": [
          -120.82252493163331,
          -13.066209633823684
        ]
      }
    },
    {
      "type": "Feature",
      "properties": {
        "norad_id": 31814,
        "name": "FENGYUN 1C DEB",
        "group": "fengyun-1c-debris",
        "lat": -51.13749302061778,
        "lon": -159.77489009186357,
        "alt_km": 850.0120659955264,
        "timestamp": "2025-12-08T08:59:01.049950+00:00",
        "meta_object_name": "FENGYUN 1C DEB",
        "meta_object_id": "1999-025CHC",
        "meta_epoch": "2025-12-07T21:17:57.257664",
        "meta_mean_motion": 13.6646422,
        "meta_eccentricity": 0.02297556,
        "meta_inclination": 99.5721,
        "meta_ra_of_asc_node": 31.8308,
        "meta_arg_of_pericenter": 227.9544,
        "meta_mean_anomaly": 130.1846,
        "meta_ephemeris_type": 0,
        "meta_classification_type": "U",
        "meta_norad_cat_id": 31814,
        "meta_element_set_no": 999,
        "meta_rev_at_epoch": 61733,
        "meta_bstar": 0.00084873009,
        "meta_mean_motion_dot": 7.98e-06,
        "meta_mean_motion_ddot": 0,
        "tle_line1": "1 31814U 99025CHC 25341.88746826  .00000798  00000+0  84873-3 0  9992",
        "tle_line2": "2 31814  99.5721  31.8308 0229755 227.9544 130.1846 13.66464220617335"
      },
      "geometry": {
        "type": "Point",
        "coordinates": [
          -159.77489009186357,
          -51.13749302061778
        ]
      }
    },
    {
      "type": "Feature",
      "properties": {
        "norad_id": 31815,
        "name": "FENGYUN 1C DEB",
        "group": "fengyun-1c-debris",
        "lat": 73.62516256249057,
        "lon": -179.50750650753076,
        "alt_km": 835.9965469544277,
        "timestamp": "2025-12-08T08:59:01.049971+00:00",
        "meta_object_name": "FENGYUN 1C DEB",
        "meta_object_id": "1999-025CHD",
        "meta_epoch": "2025-12-07T17:10:23.553696",
        "meta_mean_motion": 14.10279063,
        "meta_eccentricity": 0.00594586,
        "meta_inclination": 98.7678,
        "meta_ra_of_asc_node": 328.1672,
        "meta_arg_of_pericenter": 36.289,
        "meta_mean_anomaly": 324.2291,
        "meta_ephemeris_type": 0,
        "meta_classification_type": "U",
        "meta_norad_cat_id": 31815,
        "meta_element_set_no": 999,
        "meta_rev_at_epoch": 95468,
        "meta_bstar": 6.412628e-05,
        "meta_mean_motion_dot": 7.3e-07,
        "meta_mean_motion_ddot": 0,
        "tle_line1": "1 31815U 99025CHD 25341.71555039  .00000073  00000+0  64126-4 0  9995",
        "tle_line2": "2 31815  98.7678 328.1672 0059458  36.2890 324.2291 14.10279063954681"
      },
      "geometry": {
        "type": "Point",
        "coordinates": [
          -179.50750650753076,
          73.62516256249057
        ]
      }
    }
  ]
}